{"type": "FeatureCollection", "features": [ {"type": "Feature", "properties": {"norad_id": 47051, "name": "COSMOS 2251 DEB", "group": "cosmos-2251-debris", "lat": 55.53907069757595, "lon": -33.066032040006824, "alt_km": 1242.8881810169078, "timestamp": "2025-12-20T03:42:47.792788+00:00", "meta": {"OBJECT_NAME": "COSMOS 2251 DEB", "OBJECT_ID": "1993-036BXF", "EPOCH": "2025-12-13T06:55:53.868288", "MEAN_MOTION": 13.67117141, "ECCENTRICITY": 0.03401033, "INCLINATION": 74.1001, "RA_OF_ASC_NODE": 182.6908, "ARG_OF_PERICENTER": 296.1774, "MEAN_ANOMALY": 246.9893, "EPHEMERIS_TYPE": 0, "CLASSIFICATION_TYPE": "U", "NORAD_CAT_ID": 47051, "ELEMENT_SET_NO": 999, "REV_AT_EPOCH": 59945, "BSTAR": 0.0019326179, "MEAN_MOTION_DOT": 2.391e-05, "MEAN_MOTION_DDOT": 0}, "tle": {"line1": "1 47051U 93036BXF 25347.28881792  .00002391  00000+0  19326-2 0  9991", "line2": "2 47051  74.1001 182.6908 0340103 296.1774 246.9893 13.67117141599458"}}, "geometry": {"type": "Point", "coordinates": [-33.066032040006824, 55.53907069757595]}}, {"type": "Feature", "properties": {"norad_id": 47052, "name": "COSMOS 2251 DEB", "group": "cosmos-2251-debris", "lat": -26.56581911857615, "lon": 154.96036753765298, "alt_km": 819.4721718868768, "timestamp": "2025-12-20T03:42:47.792798+00:00", "meta": {"OBJECT_NAME": "COSMOS 2251 DEB", "OBJECT_ID": "1993-036BXG", "EPOCH": "2025-12-13T17:42:34.547904", "MEAN_MOTION": 14.35482778, "ECCENTRICITY": 0.00580984, "INCLINATION": 74.0478, "RA_OF_ASC_NODE": 338.4955, "ARG_OF_PERICENTER": 52.4094, "MEAN_ANOMALY": 127.807, "EPHEMERIS_TYPE": 0, "CLASSIFICATION_TYPE": "U", "NORAD_CAT_ID": 47052, "ELEMENT_SET_NO": 999, "REV_AT_EPOCH": 61803, "BSTAR": 0.00037288685, "MEAN_MOTION_DOT": 1.067e-05, "MEAN_MOTION_DDOT": 0}, "tle": {"line1": "1 47052U 93036BXG 25347.73789986  .00001067  00000+0  37289-3 0  9992", "line2": "2 47052  74.0478 338.4955 0058098  52.4094 127.8070 14.35482778618033"}}, "geometry": {"type": "Point", "coordinates": [154.96036753765298, -26.56581911857615]}}, {"type": "Feature", "properties": {"norad_id": 47053, "name": "COSMOS 2251 DEB", "group": "cosmos-2251-debris", "lat": 55.00670808895135, "lon": 37.963014033833225, "alt_km": 915.5855241771123, "timestamp": "2025-12-20T03:42:47.792808+00:00", "meta": {"OBJECT_NAME": "COSMOS 2251 DEB", "OBJECT_ID": "1993-036BXH", "EPOCH": "2025-12-16T00:20:00.787200", "MEAN_MOTION": 13.59681102, "ECCENTRICITY": 0.03769313, "INCLINATION": 74.0586, "RA_OF_ASC_NODE": 248.7599, "ARG_OF_PERICENTER": 61.5734, "MEAN_ANOMALY": 314.7883, "EPHEMERIS_TYPE": 0, "CLASSIFICATION_TYPE": "U", "NORAD_CAT_ID": 47053, "ELEMENT_SET_NO": 999, "REV_AT_EPOCH": 28933, "BSTAR": 0.0014494241, "MEAN_MOTION_DOT": 1.7e-05, "MEAN_MOTION_DDOT": 0}, "tle": {"line1": "1 47053U 93036BXH 25350.01389800  .00001700  00000+0  14494-2 0  9995", "line2": "2 47053  74.0586 248.7599 0376931  61.5734 314.7883 13.59681102289335"}}, "geometry": {"type": "Point", "coordinates": [37.963014033833225, 55.00670808895135]}}, {"type": "Feature", "properties": {"norad_id": 47059, "name": "COSMOS 2251 DEB", "group": "cosmos-2251-debris", "lat": 67.76020538092595, "lon": -4.649732638038082, "alt_km": 516.2306545444244, "timestamp": "2025-12-20T03:42:47.792819+00:00", "meta": {"OBJECT_NAME": "COSMOS 2251 DEB", "OBJECT_ID": "1993-036BXP", "EPOCH": "2025-12-16T01:10:48.054720", "MEAN_MOTION": 15.13144812, "ECCENTRICITY": 0.00128667, "INCLINATION": 73.98, "RA_OF_ASC_NODE": 228.534, "ARG_OF_PERICENTER": 42.2566, "MEAN_ANOMALY": 26.5019, "EPHEMERIS_TYPE": 0, "CLASSIFICATION_TYPE": "U", "NORAD_CAT_ID": 47059, "ELEMENT_SET_NO": 999, "REV_AT_EPOCH": 8355, "BSTAR": 0.0018804977, "MEAN_MOTION_DOT": 0.00033522, "MEAN_MOTION_DDOT": 0}, "tle": {"line1": "1 47059U 93036BXP 25350.04916730  .00033522  00000+0  18805-2 0  9999", "line2": "2 47059  73.9800 228.5340 0012866  42.2566  26.5019 15.13144812 83550"}}, "geometry": {"type": "Point", "coordinates": [-4.649732638038082, 67.76020538092595]}}, {"type": "Feature", "properties": {"norad_id": 47062, "name": "COSMOS 2251 DEB", "group": "cosmos-2251-debris", "lat": -19.507751578529685, "lon": 60.14776541725618, "alt_km": 1200.8516907529547, "timestamp": "2025-12-20T03:42:47.792829+00:00", "meta": {"OBJECT_NAME": "COSMOS 2251 DEB", "OBJECT_ID": "1993-036BXS", "EPOCH": "2025-12-13T23:56:30.676992", "MEAN_MOTION": 13.71952164, "ECCENTRICITY": 0.03233862, "INCLINATION": 74.0831, "RA_OF_ASC_NODE": 76.1003, "ARG_OF_PERICENTER": 201.6929, "MEAN_ANOMALY": 337.1469, "EPHEMERIS_TYPE": 0, "CLASSIFICATION_TYPE": "U", "NORAD_CAT_ID": 47062, "ELEMENT_SET_NO": 999, "REV_AT_EPOCH": 55619, "BSTAR": 0.0017198262, "MEAN_MOTION_DOT": 2.244e-05, "MEAN_MOTION_DDOT": 0}, "tle": {"line1": "1 47062U 93036BXS 25347.99757728  .00002244  00000+0  17198-2 0  9994", "line2": "2 47062  74.0831  76.1003 0323386 201.6929 337.1469 13.71952164556193"}}, "geometry": {"type": "Point", "coordinates": [60.14776541725618, -19.507751578529685]}}, {"type": "Feature", "properties": {"norad_id": 47068, "name": "COSMOS 2251 DEB", "group": "cosmos-2251-debris", "lat": 69.6327560099672, "lon": -41.04268996217314, "alt_km": 720.9899696274215, "timestamp": "2025-12-20T03:42:47.792839+00:00", "meta": {"OBJECT_NAME": "COSMOS 2251 DEB", "OBJECT_ID": "1993-036BXY", "EPOCH": "2025-12-18T06:37:53.129568", "MEAN_MOTION": 14.53187379, "ECCENTRICITY": 0.00182878, "INCLINATION": 74.0232, "RA_OF_ASC_NODE": 193.012, "ARG_OF_PERICENTER": 279.6749, "MEAN_ANOMALY": 80.2347, "EPHEMERIS_TYPE": 0, "CLASSIFICATION_TYPE": "U", "NORAD_CAT_ID": 47068, "ELEMENT_SET_NO": 999, "REV_AT_EPOCH": 61837, "BSTAR": 0.00067889, "MEAN_MOTION_DOT": 2.791e-05, "MEAN_MOTION_DDOT": 0}, "tle": {"line1": "1 47068U 93036BXY 25352.27630937  .00002791  00000+0  67889-3 0  9999", "line2": "2 47068  74.0232 193.0120 0018287 279.6749  80.2347 14.53187379618378"}}, "geometry": {"type": "Point", "coordinates": [-41.04268996217314, 69.6327560099672]}}, {"type": "Feature", "properties": {"norad_id": 47073, "name": "COSMOS 2251 DEB", "group": "cosmos-2251-debris", "lat": 51.51979958943924, "lon": -150.01712737824855, "alt_km": 987.9636103464209, "timestamp": "2025-12-20T03:42:47.792872+00:00", "meta": {"OBJECT_NAME": "COSMOS 2251 DEB", "OBJECT_ID": "1993-036BYD", "EPOCH": "2025-12-15T07:13:18.345792", "MEAN_MOTION": 14.04726954, "ECCENTRICITY": 0.01614948, "INCLINATION": 74.0808, "RA_OF_ASC_NODE": 197.3835, "ARG_OF_PERICENTER": 235.0635, "MEAN_ANOMALY": 123.5242, "EPHEMERIS_TYPE": 0, "CLASSIFICATION_TYPE": "U", "NORAD_CAT_ID": 47073, "ELEMENT_SET_NO": 999, "REV_AT_EPOCH": 60397, "BSTAR": 0.00047491463, "MEAN_MOTION_DOT": 8.3e-06, "MEAN_MOTION_DDOT": 0}, "tle": {"line1": "1 47073U 93036BYD 25349.30090678  .00000830  00000+0  47491-3 0  9996", "line2": "2 47073  74.0808 197.3835 0161494 235.0635 123.5242 14.04726954603971"}}, "geometry": {"type": "Point", "coordinates": [-150.01712737824855, 51.51979958943924]}}, {"type": "Feature", "properties": {"norad_id": 47074, "name": "COSMOS 2251 DEB", "group": "cosmos-2251-debris", "lat": -46.055497836434, "lon": -82.05987675629251, "alt_km": 677.0683628542747, "timestamp": "2025-12-20T03:42:47.792883+00:00", "meta": {"OBJECT_NAME": "COSMOS 2251 DEB", "OBJECT_ID": "1993-036BYE", "EPOCH": "2025-12-16T13:32:26.153376", "MEAN_MOTION": 14.35650419, "ECCENTRICITY": 0.01449048, "INCLINATION": 74.0928, "RA_OF_ASC_NODE": 301.7157, "ARG_OF_PERICENTER": 328.8455, "MEAN_ANOMALY": 153.2821, "EPHEMERIS_TYPE": 0, "CLASSIFICATION_TYPE": "U", "NORAD_CAT_ID": 47074, "ELEMENT_SET_NO": 999, "REV_AT_EPOCH": 2737, "BSTAR": 0.0011411657, "MEAN_MOTION_DOT": 3.683e-05, "MEAN_MOTION_DDOT": 0}, "tle": {"line1": "1 47074U 93036BYE 25350.56419159  .00003683  00000+0  11412-2 0  9998", "line2": "2 47074  74.0928 301.7157 0144904 328.8455 153.2821 14.35650419 27374"}}, "geometry": {"type": "Point", "coordinates": [-82.05987675629251, -46.055497836434]}}, {"type": "Feature", "properties": {"norad_id": 47116, "name": "COSMOS 2251 DEB", "group": "cosmos-2251-debris", "lat": 31.04437572859844, "lon": -124.39483452476956, "alt_km": 565.4342766422596, "timestamp": "2025-12-20T03:42:47.792898+00:00", "meta": {"OBJECT_NAME": "COSMOS 2251 DEB", "OBJECT_ID": "1993-036BYJ", "EPOCH": "2025-12-17T22:44:25.492992", "MEAN_MOTION": 14.98433598, "ECCENTRICITY": 0.00213127, "INCLINATION": 74.0233, "RA_OF_ASC_NODE": 230.1515, "ARG_OF_PERICENTER": 323.4041, "MEAN_ANOMALY": 47.2172, "EPHEMERIS_TYPE": 0, "CLASSIFICATION_TYPE": "U", "NORAD_CAT_ID": 47116, "ELEMENT_SET_NO": 999, "REV_AT_EPOCH": 59589, "BSTAR": 0.0014083931, "MEAN_MOTION_DOT": 0.000169, "MEAN_MOTION_DDOT": 0}, "tle": {"line1": "1 47116U 93036BYJ 25351.94751728  .00016900  00000+0  14084-2 0  9993", "line2": "2 47116  74.0233 230.1515 0021312 323.4041  47.2172 14.98433598595896"}}, "geometry": {"type": "Point", "coordinates": [-124.39483452476956, 31.04437572859844]}}, {"type": "Feature", "properties": {"norad_id": 53093, "name": "COSMOS 2251 DEB", "group": "cosmos-2251-debris", "lat": 27.98864404783938, "lon": 98.96197752518523, "alt_km": 762.3427986900297, "timestamp": "2025-12-20T03:42:47.792908+00:00", "meta": {"OBJECT_NAME": "COSMOS 2251 DEB", "OBJECT_ID": "1993-036BYP", "EPOCH": "2025-12-19T05:22:15.091392", "MEAN_MOTION": 14.41913445, "ECCENTRICITY": 0.0019617, "INCLINATION": 74.0369, "RA_OF_ASC_NODE": 289.4365, "ARG_OF_PERICENTER": 5.5053, "MEAN_ANOMALY": 354.6315, "EPHEMERIS_TYPE": 0, "CLASSIFICATION_TYPE": "U", "NORAD_CAT_ID": 53093, "ELEMENT_SET_NO": 999, "REV_AT_EPOCH": 17819, "BSTAR": 0.0005874, "MEAN_MOTION_DOT": 1.902e-05, "MEAN_MOTION_DDOT": 0}, "tle": {"line1": "1 53093U 93036BYP 25353.22378578  .00001902  00000+0  58740-3 0  9999", "line2": "2 53093  74.0369 289.4365 0019617   5.5053 354.6315 14.41913445178199"}}, "geometry": {"type": "Point", "coordinates": [98.96197752518523, 27.98864404783938]}}]}